start=new Date('2022-06-12T00:00:00.000Z').valueOf();
sats=[{"ARG_OF_PERICENTER":"58.8410","OBJECT_ID":"2022-025L","PERIOD":"95.437","EPOCH":"2022-06-11T22:00:00.999936","ECCENTRICITY":"0.00018420","TLE_LINE2":"2 51966  53.2171  44.7868 0001842  58.8410 354.2980 15.08853332  1309","NORAD_CAT_ID":"51966","MEAN_ANOMALY":"354.2980","TLE_LINE1":"1 51966U 22025L   22162.91667824 -.00016183  00000-0 -10006-2 0  9994","CENTER_NAME":"EARTH","OBJECT_TYPE":"PAYLOAD","MEAN_MOTION_DOT":"-0.00016183","INCLINATION":"53.2171","COUNTRY_CODE":"US","RCS_SIZE":"LARGE","RA_OF_ASC_NODE":"44.7868","GP_ID":"205930503","BSTAR":"-0.00100060000000","SEMIMAJOR_AXIS":"6917.840","REV_AT_EPOCH":"130","REF_FRAME":"TEME","ELEMENT_SET_NO":"999","TIME_SYSTEM":"UTC","EPHEMERIS_TYPE":"0","MEAN_ELEMENT_THEORY":"SGP4","MEAN_MOTION":"15.08853332","DECAY_DATE":null,"APOAPSIS":"540.979","MEAN_MOTION_DDOT":"0.0000000000000","SITE":"AFETR","CLASSIFICATION_TYPE":"U","LAUNCH_DATE":"2022-03-09","OBJECT_NAME":"STARLINK-3699","FILE":"3492149","PERIAPSIS":"538.430"},{"SITE":"AFETR","LAUNCH_DATE":"2022-03-09","OBJECT_NAME":"STARLINK-3695","CLASSIFICATION_TYPE":"U","FILE":"3492149","PERIAPSIS":"412.853","DECAY_DATE":null,"APOAPSIS":"420.412","MEAN_MOTION_DDOT":"0.0000000000000","MEAN_ELEMENT_THEORY":"SGP4","EPHEMERIS_TYPE":"0","MEAN_MOTION":"15.50032769","TIME_SYSTEM":"UTC","ELEMENT_SET_NO":"999","REF_FRAME":"TEME","REV_AT_EPOCH":"130","SEMIMAJOR_AXIS":"6794.767","BSTAR":"-0.00010572000000","RA_OF_ASC_NODE":"39.9055","GP_ID":"205929949","RCS_SIZE":"LARGE","COUNTRY_CODE":"US","MEAN_MOTION_DOT":"-0.00006487","INCLINATION":"53.2130","CENTER_NAME":"EARTH","OBJECT_TYPE":"PAYLOAD","TLE_LINE1":"1 51967U 22025M   22162.91667824 -.00006487  00000-0 -10572-3 0  9990","TLE_LINE2":"2 51967  53.2130  39.9055 0005562  22.6709 275.4015 15.50032769  1305","ECCENTRICITY":"0.00055620","NORAD_CAT_ID":"51967","MEAN_ANOMALY":"275.4015","ARG_OF_PERICENTER":"22.6709","OBJECT_ID":"2022-025M","PERIOD":"92.901","EPOCH":"2022-06-11T22:00:00.999936"},{"REV_AT_EPOCH":"130","SEMIMAJOR_AXIS":"6917.882","BSTAR":"-0.00147150000000","FILE":"3492149","PERIAPSIS":"538.451","OBJECT_NAME":"STARLINK-3681","SITE":"AFETR","LAUNCH_DATE":"2022-03-09","CLASSIFICATION_TYPE":"U","MEAN_MOTION_DDOT":"0.0000000000000","APOAPSIS":"541.044","DECAY_DATE":null,"MEAN_MOTION":"15.08839411","MEAN_ELEMENT_THEORY":"SGP4","EPHEMERIS_TYPE":"0","TIME_SYSTEM":"UTC","ELEMENT_SET_NO":"999","REF_FRAME":"TEME","TLE_LINE1":"1 51968U 22025N   22162.91667824 -.00023631  00000-0 -14715-2 0  9993","MEAN_ANOMALY":"18.8503","NORAD_CAT_ID":"51968","ECCENTRICITY":"0.00018740","TLE_LINE2":"2 51968  53.2153  44.7867 0001874  54.3074  18.8503 15.08839411  1308","EPOCH":"2022-06-11T22:00:00.999936","PERIOD":"95.438","OBJECT_ID":"2022-025N","ARG_OF_PERICENTER":"54.3074","GP_ID":"205930397","RA_OF_ASC_NODE":"44.7867","RCS_SIZE":"LARGE","COUNTRY_CODE":"US","INCLINATION":"53.2153","MEAN_MOTION_DOT":"-0.00023631","OBJECT_TYPE":"PAYLOAD","CENTER_NAME":"EARTH"},{"PERIAPSIS":"538.279","FILE":"3492149","SITE":"AFETR","LAUNCH_DATE":"2022-03-09","OBJECT_NAME":"STARLINK-3680","CLASSIFICATION_TYPE":"U","MEAN_MOTION":"15.08859088","MEAN_ELEMENT_THEORY":"SGP4","EPHEMERIS_TYPE":"0","MEAN_MOTION_DDOT":"0.0000000000000","APOAPSIS":"541.096","DECAY_DATE":null,"ELEMENT_SET_NO":"999","TIME_SYSTEM":"UTC","REF_FRAME":"TEME","REV_AT_EPOCH":"130","SEMIMAJOR_AXIS":"6917.822","BSTAR":"-0.00076729000000","GP_ID":"205930189","RA_OF_ASC_NODE":"44.7897","RCS_SIZE":"LARGE","INCLINATION":"53.2151","MEAN_MOTION_DOT":"-0.00012486","COUNTRY_CODE":"US","OBJECT_TYPE":"PAYLOAD","CENTER_NAME":"EARTH","TLE_LINE1":"1 51969U 22025P   22162.91667824 -.00012486  00000-0 -76729-3 0  9994","NORAD_CAT_ID":"51969","MEAN_ANOMALY":"302.0033","TLE_LINE2":"2 51969  53.2151  44.7897 0002036  51.1008 302.0033 15.08859088  1301","ECCENTRICITY":"0.00020360","EPOCH":"2022-06-11T22:00:00.999936","PERIOD":"95.436","ARG_OF_PERICENTER":"51.1008","OBJECT_ID":"2022-025P"},{"PERIOD":"95.436","EPOCH":"2022-06-11T22:00:00.999936","OBJECT_ID":"2022-025Q","ARG_OF_PERICENTER":"57.1540","NORAD_CAT_ID":"51970","MEAN_ANOMALY":"55.9748","ECCENTRICITY":"0.00018180","TLE_LINE2":"2 51970  53.2164  44.7866 0001818  57.1540  55.9748 15.08872388  1302","TLE_LINE1":"1 51970U 22025Q   22162.91667824 -.00044979  00000-0 -28232-2 0  9993","CENTER_NAME":"EARTH","OBJECT_TYPE":"PAYLOAD","COUNTRY_CODE":"US","INCLINATION":"53.2164","MEAN_MOTION_DOT":"-0.00044979","RCS_SIZE":"LARGE","GP_ID":"205930159","RA_OF_ASC_NODE":"44.7866","BSTAR":"-0.00282320000000","SEMIMAJOR_AXIS":"6917.781","REV_AT_EPOCH":"130","REF_FRAME":"TEME","ELEMENT_SET_NO":"999","TIME_SYSTEM":"UTC","MEAN_MOTION_DDOT":"0.0000000000000","DECAY_DATE":null,"APOAPSIS":"540.904","MEAN_MOTION":"15.08872388","EPHEMERIS_TYPE":"0","MEAN_ELEMENT_THEORY":"SGP4","FILE":"3492149","PERIAPSIS":"538.389","SITE":"AFETR","LAUNCH_DATE":"2022-03-09","CLASSIFICATION_TYPE":"U","OBJECT_NAME":"STARLINK-3677"},{"BSTAR":"-0.00401370000000","SEMIMAJOR_AXIS":"6917.785","REV_AT_EPOCH":"130","REF_FRAME":"TEME","ELEMENT_SET_NO":"999","TIME_SYSTEM":"UTC","MEAN_MOTION":"15.08871181","EPHEMERIS_TYPE":"0","MEAN_ELEMENT_THEORY":"SGP4","MEAN_MOTION_DDOT":"0.0000000000000","DECAY_DATE":null,"APOAPSIS":"540.870","FILE":"3492149","PERIAPSIS":"538.430","SITE":"AFETR","LAUNCH_DATE":"2022-03-09","CLASSIFICATION_TYPE":"U","OBJECT_NAME":"STARLINK-3669","EPOCH":"2022-06-11T22:00:00.999936","PERIOD":"95.436","ARG_OF_PERICENTER":"44.2158","OBJECT_ID":"2022-025R","NORAD_CAT_ID":"51971","MEAN_ANOMALY":"348.9696","ECCENTRICITY":"0.00017640","TLE_LINE2":"2 51971  53.2165  44.7870 0001764  44.2158 348.9696 15.08871181  1308","TLE_LINE1":"1 51971U 22025R   22162.91667824 -.00063657  00000-0 -40137-2 0  9996","CENTER_NAME":"EARTH","OBJECT_TYPE":"PAYLOAD","MEAN_MOTION_DOT":"-0.00063657","INCLINATION":"53.2165","COUNTRY_CODE":"US","RCS_SIZE":"LARGE","GP_ID":"205930294","RA_OF_ASC_NODE":"44.7870"},{"REV_AT_EPOCH":"130","SEMIMAJOR_AXIS":"6917.850","BSTAR":"-0.00078674000000","PERIAPSIS":"538.493","FILE":"3492149","SITE":"AFETR","CLASSIFICATION_TYPE":"U","LAUNCH_DATE":"2022-03-09","OBJECT_NAME":"STARLINK-3671","MEAN_MOTION_DDOT":"0.0000000000000","APOAPSIS":"540.937","DECAY_DATE":null,"MEAN_MOTION":"15.08849912","MEAN_ELEMENT_THEORY":"SGP4","EPHEMERIS_TYPE":"0","ELEMENT_SET_NO":"999","TIME_SYSTEM":"UTC","REF_FRAME":"TEME","TLE_LINE1":"1 51972U 22025S   22162.91667824 -.00012791  00000-0 -78674-3 0  9998","MEAN_ANOMALY":"75.3275","NORAD_CAT_ID":"51972","ECCENTRICITY":"0.00017670","TLE_LINE2":"2 51972  53.2175  44.7865 0001767  57.8254  75.3275 15.08849912  1305","PERIOD":"95.437","EPOCH":"2022-06-11T22:00:00.999936","ARG_OF_PERICENTER":"57.8254","OBJECT_ID":"2022-025S","GP_ID":"205930054","RA_OF_ASC_NODE":"44.7865","RCS_SIZE":"LARGE","COUNTRY_CODE":"US","INCLINATION":"53.2175","MEAN_MOTION_DOT":"-0.00012791","OBJECT_TYPE":"PAYLOAD","CENTER_NAME":"EARTH"},{"SITE":"AFETR","OBJECT_NAME":"STARLINK-3679","LAUNCH_DATE":"2022-03-09","CLASSIFICATION_TYPE":"U","PERIAPSIS":"538.468","FILE":"3492149","APOAPSIS":"540.924","DECAY_DATE":null,"MEAN_MOTION_DDOT":"0.0000000000000","EPHEMERIS_TYPE":"0","MEAN_ELEMENT_THEORY":"SGP4","MEAN_MOTION":"15.08856073","TIME_SYSTEM":"UTC","ELEMENT_SET_NO":"999","REF_FRAME":"TEME","REV_AT_EPOCH":"130","SEMIMAJOR_AXIS":"6917.831","BSTAR":"-0.00090602000000","RA_OF_ASC_NODE":"44.7874","GP_ID":"205929844","RCS_SIZE":"LARGE","COUNTRY_CODE":"US","INCLINATION":"53.2159","MEAN_MOTION_DOT":"-0.00014685","OBJECT_TYPE":"PAYLOAD","CENTER_NAME":"EARTH","TLE_LINE1":"1 51973U 22025T   22162.91667824 -.00014685  00000-0 -90602-3 0  9998","ECCENTRICITY":"0.00017750","TLE_LINE2":"2 51973  53.2159  44.7874 0001775  52.7528  40.3826 15.08856073  1305","NORAD_CAT_ID":"51973","MEAN_ANOMALY":"40.3826","OBJECT_ID":"2022-025T","ARG_OF_PERICENTER":"52.7528","PERIOD":"95.437","EPOCH":"2022-06-11T22:00:00.999936"},{"REF_FRAME":"TEME","TIME_SYSTEM":"UTC","ELEMENT_SET_NO":"999","MEAN_MOTION":"15.08852801","EPHEMERIS_TYPE":"0","MEAN_ELEMENT_THEORY":"SGP4","MEAN_MOTION_DDOT":"0.0000000000000","DECAY_DATE":null,"APOAPSIS":"540.961","FILE":"3492149","PERIAPSIS":"538.451","SITE":"AFETR","OBJECT_NAME":"STARLINK-3672","LAUNCH_DATE":"2022-03-09","CLASSIFICATION_TYPE":"U","BSTAR":"-0.00074675000000","SEMIMAJOR_AXIS":"6917.841","REV_AT_EPOCH":"130","OBJECT_TYPE":"PAYLOAD","CENTER_NAME":"EARTH","INCLINATION":"53.2134","MEAN_MOTION_DOT":"-0.00012157","COUNTRY_CODE":"US","RCS_SIZE":"LARGE","GP_ID":"205930504","RA_OF_ASC_NODE":"44.8051","EPOCH":"2022-06-11T22:00:00.999936","PERIOD":"95.437","ARG_OF_PERICENTER":"46.6151","OBJECT_ID":"2022-025U","MEAN_ANOMALY":"106.4455","NORAD_CAT_ID":"51974","TLE_LINE2":"2 51974  53.2134  44.8051 0001814  46.6151 106.4455 15.08852801  1302","ECCENTRICITY":"0.00018140","TLE_LINE1":"1 51974U 22025U   22162.91667824 -.00012157  00000-0 -74675-3 0  9993"},{"RCS_SIZE":"LARGE","GP_ID":"205929950","RA_OF_ASC_NODE":"44.7924","OBJECT_TYPE":"PAYLOAD","CENTER_NAME":"EARTH","COUNTRY_CODE":"US","INCLINATION":"53.2179","MEAN_MOTION_DOT":"0.00023605","TLE_LINE1":"1 51975U 22025V   22162.91667824  .00023605  00000-0  14967-2 0  9999","EPOCH":"2022-06-11T22:00:00.999936","PERIOD":"95.438","OBJECT_ID":"2022-025V","ARG_OF_PERICENTER":"52.3951","MEAN_ANOMALY":"95.5362","NORAD_CAT_ID":"51975","ECCENTRICITY":"0.00017890","TLE_LINE2":"2 51975  53.2179  44.7924 0001789  52.3951  95.5362 15.08829254  1304","MEAN_MOTION_DDOT":"0.0000000000000","DECAY_DATE":null,"APOAPSIS":"541.016","MEAN_MOTION":"15.08829254","EPHEMERIS_TYPE":"0","MEAN_ELEMENT_THEORY":"SGP4","PERIAPSIS":"538.541","FILE":"3492149","LAUNCH_DATE":"2022-03-09","SITE":"AFETR","OBJECT_NAME":"STARLINK-3674","CLASSIFICATION_TYPE":"U","REF_FRAME":"TEME","TIME_SYSTEM":"UTC","ELEMENT_SET_NO":"999","SEMIMAJOR_AXIS":"6917.913","REV_AT_EPOCH":"130","BSTAR":"0.00149670000000"}];
